[
  {
    "OBJECT_NAME": "STARLINK-31259",
    "OBJECT_ID": "24041C",
    "EPOCH": "2025-11-11T06:15:56.074752",
    "MEAN_MOTION": 15.27623929,
    "ECCENTRICITY": 0.0001143,
    "INCLINATION": 43.0006,
    "RA_OF_ASC_NODE": 259.1693,
    "ARG_OF_PERICENTER": 268.0003,
    "MEAN_ANOMALY": 92.0718,
    "EPHEMERIS_TYPE": 0,
    "CLASSIFICATION_TYPE": "U",
    "NORAD_CAT_ID": 59076,
    "ELEMENT_SET_NO": 999,
    "REV_AT_EPOCH": 9511,
    "BSTAR": 0.0,
    "MEAN_MOTION_DOT": -4.048e-05,
    "MEAN_MOTION_DDOT": 0.0,
    "TLE_LINE1": "1 59076U 24041C   25315.26106568 -.00004048  00000+0 -13748-3 0  9991",
    "TLE_LINE2": "2 59076  43.0006 259.1693 0001143 268.0003  92.0718 15.27623929 95114",
    "COMMENT": "Grouped by shell and plane from TLE"
  },
  {
    "OBJECT_NAME": "STARLINK-31281",
    "OBJECT_ID": "24041D",
    "EPOCH": "2025-11-11T04:47:20.385600",
    "MEAN_MOTION": 15.27605378,
    "ECCENTRICITY": 0.0001024,
    "INCLINATION": 43.0003,
    "RA_OF_ASC_NODE": 259.5653,
    "ARG_OF_PERICENTER": 267.3793,
    "MEAN_ANOMALY": 92.6941,
    "EPHEMERIS_TYPE": 0,
    "CLASSIFICATION_TYPE": "U",
    "NORAD_CAT_ID": 59077,
    "ELEMENT_SET_NO": 999,
    "REV_AT_EPOCH": 9620,
    "BSTAR": 0.00026238,
    "MEAN_MOTION_DOT": 6.97e-05,
    "MEAN_MOTION_DDOT": 0.0,
    "TLE_LINE1": "1 59077U 24041D   25315.19954150  .00006970  00000+0  26238-3 0  9994",
    "TLE_LINE2": "2 59077  43.0003 259.5653 0001024 267.3793  92.6941 15.27605378 96201",
    "COMMENT": "Grouped by shell and plane from TLE"
  },
  {
    "OBJECT_NAME": "STARLINK-31274",
    "OBJECT_ID": "24041E",
    "EPOCH": "2025-11-11T05:29:54.931200",
    "MEAN_MOTION": 15.27580509,
    "ECCENTRICITY": 0.0001247,
    "INCLINATION": 43.0067,
    "RA_OF_ASC_NODE": 259.7786,
    "ARG_OF_PERICENTER": 315.4227,
    "MEAN_ANOMALY": 44.6524,
    "EPHEMERIS_TYPE": 0,
    "CLASSIFICATION_TYPE": "U",
    "NORAD_CAT_ID": 59078,
    "ELEMENT_SET_NO": 999,
    "REV_AT_EPOCH": 9615,
    "BSTAR": 5.3203000000000005e-05,
    "MEAN_MOTION_DOT": 1.202e-05,
    "MEAN_MOTION_DDOT": 0.0,
    "TLE_LINE1": "1 59078U 24041E   25315.22910800  .00001202  00000+0  53203-4 0  9999",
    "TLE_LINE2": "2 59078  43.0067 259.7786 0001247 315.4227  44.6524 15.27580509 96151",
    "COMMENT": "Grouped by shell and plane from TLE"
  },
  {
    "OBJECT_NAME": "STARLINK-31257",
    "OBJECT_ID": "24041F",
    "EPOCH": "2025-11-11T06:39:57.935232",
    "MEAN_MOTION": 15.27605295,
    "ECCENTRICITY": 0.0001559,
    "INCLINATION": 43.0018,
    "RA_OF_ASC_NODE": 259.2838,
    "ARG_OF_PERICENTER": 282.9789,
    "MEAN_ANOMALY": 77.0889,
    "EPHEMERIS_TYPE": 0,
    "CLASSIFICATION_TYPE": "U",
    "NORAD_CAT_ID": 59079,
    "ELEMENT_SET_NO": 999,
    "REV_AT_EPOCH": 9616,
    "BSTAR": 0.00025441000000000005,
    "MEAN_MOTION_DOT": 6.75e-05,
    "MEAN_MOTION_DDOT": 0.0,
    "TLE_LINE1": "1 59079U 24041F   25315.27775388  .00006750  00000+0  25441-3 0  9990",
    "TLE_LINE2": "2 59079  43.0018 259.2838 0001559 282.9789  77.0889 15.27605295 96163",
    "COMMENT": "Grouped by shell and plane from TLE"
  },
  {
    "OBJECT_NAME": "STARLINK-31292",
    "OBJECT_ID": "24041H",
    "EPOCH": "2025-11-11T06:27:02.000160",
    "MEAN_MOTION": 15.27587967,
    "ECCENTRICITY": 7.35e-05,
    "INCLINATION": 43.001,
    "RA_OF_ASC_NODE": 259.2208,
    "ARG_OF_PERICENTER": 278.1233,
    "MEAN_ANOMALY": 81.9536,
    "EPHEMERIS_TYPE": 0,
    "CLASSIFICATION_TYPE": "U",
    "NORAD_CAT_ID": 59081,
    "ELEMENT_SET_NO": 999,
    "REV_AT_EPOCH": 9615,
    "BSTAR": 0.00023152,
    "MEAN_MOTION_DOT": 6.116e-05,
    "MEAN_MOTION_DDOT": 0.0,
    "TLE_LINE1": "1 59081U 24041H   25315.26877315  .00006116  00000+0  23152-3 0  9998",
    "TLE_LINE2": "2 59081  43.0010 259.2208 0000735 278.1233  81.9536 15.27587967 96152",
    "COMMENT": "Grouped by shell and plane from TLE"
  },
  {
    "OBJECT_NAME": "STARLINK-31286",
    "OBJECT_ID": "24041J",
    "EPOCH": "2025-11-11T06:32:35.012544",
    "MEAN_MOTION": 15.2757921,
    "ECCENTRICITY": 0.0001823,
    "INCLINATION": 42.9999,
    "RA_OF_ASC_NODE": 259.2478,
    "ARG_OF_PERICENTER": 255.9624,
    "MEAN_ANOMALY": 104.1025,
    "EPHEMERIS_TYPE": 0,
    "CLASSIFICATION_TYPE": "U",
    "NORAD_CAT_ID": 59082,
    "ELEMENT_SET_NO": 999,
    "REV_AT_EPOCH": 9624,
    "BSTAR": 0.00029249,
    "MEAN_MOTION_DOT": 7.795e-05,
    "MEAN_MOTION_DDOT": 0.0,
    "TLE_LINE1": "1 59082U 24041J   25315.27262746  .00007795  00000+0  29249-3 0  9993",
    "TLE_LINE2": "2 59082  42.9999 259.2478 0001823 255.9624 104.1025 15.27579210 96245",
    "COMMENT": "Grouped by shell and plane from TLE"
  },
  {
    "OBJECT_NAME": "STARLINK-31261",
    "OBJECT_ID": "24041L",
    "EPOCH": "2025-11-11T05:39:09.536256",
    "MEAN_MOTION": 15.27587717,
    "ECCENTRICITY": 3.84e-05,
    "INCLINATION": 43.0038,
    "RA_OF_ASC_NODE": 259.8264,
    "ARG_OF_PERICENTER": 255.341,
    "MEAN_ANOMALY": 104.7399,
    "EPHEMERIS_TYPE": 0,
    "CLASSIFICATION_TYPE": "U",
    "NORAD_CAT_ID": 59084,
    "ELEMENT_SET_NO": 999,
    "REV_AT_EPOCH": 9620,
    "BSTAR": 0.00010568,
    "MEAN_MOTION_DOT": 2.648e-05,
    "MEAN_MOTION_DDOT": 0.0,
    "TLE_LINE1": "1 59084U 24041L   25315.23552704  .00002648  00000+0  10568-3 0  9993",
    "TLE_LINE2": "2 59084  43.0038 259.8264 0000384 255.3410 104.7399 15.27587717 96207",
    "COMMENT": "Grouped by shell and plane from TLE"
  },
  {
    "OBJECT_NAME": "STARLINK-31279",
    "OBJECT_ID": "24041N",
    "EPOCH": "2025-11-11T05:59:29.692608",
    "MEAN_MOTION": 15.27595358,
    "ECCENTRICITY": 0.0001216,
    "INCLINATION": 43.003,
    "RA_OF_ASC_NODE": 259.9288,
    "ARG_OF_PERICENTER": 275.3029,
    "MEAN_ANOMALY": 84.7684,
    "EPHEMERIS_TYPE": 0,
    "CLASSIFICATION_TYPE": "U",
    "NORAD_CAT_ID": 59086,
    "ELEMENT_SET_NO": 999,
    "REV_AT_EPOCH": 9620,
    "BSTAR": 0.00021003,
    "MEAN_MOTION_DOT": 5.524e-05,
    "MEAN_MOTION_DDOT": 0.0,
    "TLE_LINE1": "1 59086U 24041N   25315.24964922  .00005524  00000+0  21003-3 0  9997",
    "TLE_LINE2": "2 59086  43.0030 259.9288 0001216 275.3029  84.7684 15.27595358 96205",
    "COMMENT": "Grouped by shell and plane from TLE"
  },
  {
    "OBJECT_NAME": "STARLINK-31266",
    "OBJECT_ID": "24041P",
    "EPOCH": "2025-11-11T05:03:59.080608",
    "MEAN_MOTION": 15.27593932,
    "ECCENTRICITY": 8.69e-05,
    "INCLINATION": 43.0,
    "RA_OF_ASC_NODE": 259.6441,
    "ARG_OF_PERICENTER": 280.1413,
    "MEAN_ANOMALY": 79.9341,
    "EPHEMERIS_TYPE": 0,
    "CLASSIFICATION_TYPE": "U",
    "NORAD_CAT_ID": 59087,
    "ELEMENT_SET_NO": 999,
    "REV_AT_EPOCH": 9620,
    "BSTAR": 0.00015354000000000002,
    "MEAN_MOTION_DOT": 3.967e-05,
    "MEAN_MOTION_DDOT": 0.0,
    "TLE_LINE1": "1 59087U 24041P   25315.21110047  .00003967  00000+0  15354-3 0  9997",
    "TLE_LINE2": "2 59087  43.0000 259.6441 0000869 280.1413  79.9341 15.27593932 96207",
    "COMMENT": "Grouped by shell and plane from TLE"
  },
  {
    "OBJECT_NAME": "STARLINK-31313",
    "OBJECT_ID": "24041Q",
    "EPOCH": "2025-11-11T06:41:50.222400",
    "MEAN_MOTION": 15.27612686,
    "ECCENTRICITY": 0.0001353,
    "INCLINATION": 42.9999,
    "RA_OF_ASC_NODE": 259.2932,
    "ARG_OF_PERICENTER": 275.8749,
    "MEAN_ANOMALY": 84.1948,
    "EPHEMERIS_TYPE": 0,
    "CLASSIFICATION_TYPE": "U",
    "NORAD_CAT_ID": 59088,
    "ELEMENT_SET_NO": 999,
    "REV_AT_EPOCH": 9616,
    "BSTAR": 0.00031108000000000004,
    "MEAN_MOTION_DOT": 8.316e-05,
    "MEAN_MOTION_DDOT": 0.0,
    "TLE_LINE1": "1 59088U 24041Q   25315.27905350  .00008316  00000+0  31108-3 0  9991",
    "TLE_LINE2": "2 59088  42.9999 259.2932 0001353 275.8749  84.1948 15.27612686 96160",
    "COMMENT": "Grouped by shell and plane from TLE"
  },
  {
    "OBJECT_NAME": "STARLINK-31307",
    "OBJECT_ID": "24041R",
    "EPOCH": "2025-11-11T06:36:17.338752",
    "MEAN_MOTION": 15.27604888,
    "ECCENTRICITY": 0.0001432,
    "INCLINATION": 43.0004,
    "RA_OF_ASC_NODE": 259.2678,
    "ARG_OF_PERICENTER": 286.5104,
    "MEAN_ANOMALY": 73.559,
    "EPHEMERIS_TYPE": 0,
    "CLASSIFICATION_TYPE": "U",
    "NORAD_CAT_ID": 59089,
    "ELEMENT_SET_NO": 999,
    "REV_AT_EPOCH": 9621,
    "BSTAR": 0.0,
    "MEAN_MOTION_DOT": -2.521e-05,
    "MEAN_MOTION_DDOT": 0.0,
    "TLE_LINE1": "1 59089U 24041R   25315.27520068 -.00002521  00000+0 -82048-4 0  9995",
    "TLE_LINE2": "2 59089  43.0004 259.2678 0001432 286.5104  73.5590 15.27604888 96215",
    "COMMENT": "Grouped by shell and plane from TLE"
  },
  {
    "OBJECT_NAME": "STARLINK-31343",
    "OBJECT_ID": "24041V",
    "EPOCH": "2025-11-11T05:50:14.111232",
    "MEAN_MOTION": 15.27602835,
    "ECCENTRICITY": 0.0001221,
    "INCLINATION": 43.0042,
    "RA_OF_ASC_NODE": 259.8827,
    "ARG_OF_PERICENTER": 248.4832,
    "MEAN_ANOMALY": 111.589,
    "EPHEMERIS_TYPE": 0,
    "CLASSIFICATION_TYPE": "U",
    "NORAD_CAT_ID": 59093,
    "ELEMENT_SET_NO": 999,
    "REV_AT_EPOCH": 9620,
    "BSTAR": 0.00015895999999999998,
    "MEAN_MOTION_DOT": 4.118e-05,
    "MEAN_MOTION_DDOT": 0.0,
    "TLE_LINE1": "1 59093U 24041V   25315.24321888  .00004118  00000+0  15896-3 0  9994",
    "TLE_LINE2": "2 59093  43.0042 259.8827 0001221 248.4832 111.5890 15.27602835 96200",
    "COMMENT": "Grouped by shell and plane from TLE"
  },
  {
    "OBJECT_NAME": "STARLINK-31295",
    "OBJECT_ID": "24041X",
    "EPOCH": "2025-11-11T05:18:47.263104",
    "MEAN_MOTION": 15.27591622,
    "ECCENTRICITY": 0.0001199,
    "INCLINATION": 43.0018,
    "RA_OF_ASC_NODE": 259.7183,
    "ARG_OF_PERICENTER": 263.5114,
    "MEAN_ANOMALY": 96.5601,
    "EPHEMERIS_TYPE": 0,
    "CLASSIFICATION_TYPE": "U",
    "NORAD_CAT_ID": 59095,
    "ELEMENT_SET_NO": 999,
    "REV_AT_EPOCH": 9615,
    "BSTAR": 9.2583e-05,
    "MEAN_MOTION_DOT": 2.287e-05,
    "MEAN_MOTION_DDOT": 0.0,
    "TLE_LINE1": "1 59095U 24041X   25315.22138036  .00002287  00000+0  92583-4 0  9999",
    "TLE_LINE2": "2 59095  43.0018 259.7183 0001199 263.5114  96.5601 15.27591622 96151",
    "COMMENT": "Grouped by shell and plane from TLE"
  }
]